CCSDS_OMM_VERS = 2.0
CREATION_DATE  = 
ORIGINATOR     = 

OBJECT_NAME    = UNKNOWN
OBJECT_ID      = 
CENTER_NAME    = EARTH
REF_FRAME      = TEME
TIME_SYSTEM    = UTC
MEAN_ELEMENT_THEORY = SGP/SGP4

EPOCH          = 2026-03-11T12:44:28.476096
MEAN_MOTION    = 12.93280240
ECCENTRICITY   = .00330621
INCLINATION    = 90.2507
RA_OF_ASC_NODE = 5.4069
ARG_OF_PERICENTER = 164.6562
MEAN_ANOMALY   = 195.5567

EPHEMERIS_TYPE = 0
CLASSIFICATION_TYPE = U
NORAD_CAT_ID   = 270256
ELEMENT_SET_NO = 999
REV_AT_EPOCH   = 28639
BSTAR          = -.12556032E-3
MEAN_MOTION_DOT = -.27E-6
MEAN_MOTION_DDOT = 0

CCSDS_OMM_VERS = 2.0
CREATION_DATE  = 
ORIGINATOR     = 

OBJECT_NAME    = UNKNOWN
OBJECT_ID      = 
CENTER_NAME    = EARTH
REF_FRAME      = TEME
TIME_SYSTEM    = UTC
MEAN_ELEMENT_THEORY = SGP/SGP4

EPOCH          = 2026-03-05T05:51:14.304384
MEAN_MOTION    = 12.33950421
ECCENTRICITY   = .02875935
INCLINATION    = 82.4171
RA_OF_ASC_NODE = 263.8733
ARG_OF_PERICENTER = 200.2735
MEAN_ANOMALY   = 158.6731

EPHEMERIS_TYPE = 0
CLASSIFICATION_TYPE = U
NORAD_CAT_ID   = 270258
ELEMENT_SET_NO = 999
REV_AT_EPOCH   = 27027
BSTAR          = .1607656E-1
MEAN_MOTION_DOT = .2291E-4
MEAN_MOTION_DDOT = 0

CCSDS_OMM_VERS = 2.0
CREATION_DATE  = 
ORIGINATOR     = 

OBJECT_NAME    = UNKNOWN
OBJECT_ID      = 
CENTER_NAME    = EARTH
REF_FRAME      = TEME
TIME_SYSTEM    = UTC
MEAN_ELEMENT_THEORY = SGP/SGP4

EPOCH          = 2026-03-05T16:56:03.941952
MEAN_MOTION    = 12.09725851
ECCENTRICITY   = .08987937
INCLINATION    = 83.3540
RA_OF_ASC_NODE = 228.9950
ARG_OF_PERICENTER = 306.9685
MEAN_ANOMALY   = 45.2294

EPHEMERIS_TYPE = 0
CLASSIFICATION_TYPE = U
NORAD_CAT_ID   = 270260
ELEMENT_SET_NO = 999
REV_AT_EPOCH   = 26607
BSTAR          = .22809505E-2
MEAN_MOTION_DOT = .722E-5
MEAN_MOTION_DDOT = 0

CCSDS_OMM_VERS = 2.0
CREATION_DATE  = 
ORIGINATOR     = 

OBJECT_NAME    = UNKNOWN
OBJECT_ID      = 
CENTER_NAME    = EARTH
REF_FRAME      = TEME
TIME_SYSTEM    = UTC
MEAN_ELEMENT_THEORY = SGP/SGP4

EPOCH          = 2026-03-05T02:01:56.379648
MEAN_MOTION    = 12.95608595
ECCENTRICITY   = .00329653
INCLINATION    = 90.2504
RA_OF_ASC_NODE = 6.9323
ARG_OF_PERICENTER = 82.5634
MEAN_ANOMALY   = 277.9229

EPHEMERIS_TYPE = 0
CLASSIFICATION_TYPE = U
NORAD_CAT_ID   = 270262
ELEMENT_SET_NO = 999
REV_AT_EPOCH   = 28279
BSTAR          = .236219E-4
MEAN_MOTION_DOT = .14E-6
MEAN_MOTION_DDOT = 0

CCSDS_OMM_VERS = 2.0
CREATION_DATE  = 
ORIGINATOR     = 

OBJECT_NAME    = UNKNOWN
OBJECT_ID      = 
CENTER_NAME    = EARTH
REF_FRAME      = TEME
TIME_SYSTEM    = UTC
MEAN_ELEMENT_THEORY = SGP/SGP4

EPOCH          = 2026-03-11T03:17:20.366592
MEAN_MOTION    = 13.15588333
ECCENTRICITY   = .00195974
INCLINATION    = 82.5473
RA_OF_ASC_NODE = 214.2774
ARG_OF_PERICENTER = 157.8653
MEAN_ANOMALY   = 202.3319

EPHEMERIS_TYPE = 0
CLASSIFICATION_TYPE = U
NORAD_CAT_ID   = 270264
ELEMENT_SET_NO = 999
REV_AT_EPOCH   = 28776
BSTAR          = .12554533E-2
MEAN_MOTION_DOT = .486E-5
MEAN_MOTION_DDOT = 0

CCSDS_OMM_VERS = 2.0
CREATION_DATE  = 
ORIGINATOR     = 

OBJECT_NAME    = UNKNOWN
OBJECT_ID      = 
CENTER_NAME    = EARTH
REF_FRAME      = TEME
TIME_SYSTEM    = UTC
MEAN_ELEMENT_THEORY = SGP/SGP4

EPOCH          = 2026-03-11T15:48:02.190816
MEAN_MOTION    = 12.56927129
ECCENTRICITY   = .01509731
INCLINATION    = 82.4205
RA_OF_ASC_NODE = 205.9805
ARG_OF_PERICENTER = 165.5097
MEAN_ANOMALY   = 195.0392

EPHEMERIS_TYPE = 0
CLASSIFICATION_TYPE = U
NORAD_CAT_ID   = 270266
ELEMENT_SET_NO = 999
REV_AT_EPOCH   = 27342
BSTAR          = .14022014E-1
MEAN_MOTION_DOT = .2448E-4
MEAN_MOTION_DDOT = 0

CCSDS_OMM_VERS = 2.0
CREATION_DATE  = 
ORIGINATOR     = 

OBJECT_NAME    = UNKNOWN
OBJECT_ID      = 
CENTER_NAME    = EARTH
REF_FRAME      = TEME
TIME_SYSTEM    = UTC
MEAN_ELEMENT_THEORY = SGP/SGP4

EPOCH          = 2026-03-11T12:04:42.498624
MEAN_MOTION    = 12.96388917
ECCENTRICITY   = .00300361
INCLINATION    = 90.2464
RA_OF_ASC_NODE = 4.4970
ARG_OF_PERICENTER = 30.1227
MEAN_ANOMALY   = 330.1612

EPHEMERIS_TYPE = 0
CLASSIFICATION_TYPE = U
NORAD_CAT_ID   = 270267
ELEMENT_SET_NO = 999
REV_AT_EPOCH   = 28389
BSTAR          = .10220632E-2
MEAN_MOTION_DOT = .3E-5
MEAN_MOTION_DDOT = 0

CCSDS_OMM_VERS = 2.0
CREATION_DATE  = 
ORIGINATOR     = 

OBJECT_NAME    = UNKNOWN
OBJECT_ID      = 
CENTER_NAME    = EARTH
REF_FRAME      = TEME
TIME_SYSTEM    = UTC
MEAN_ELEMENT_THEORY = SGP/SGP4

EPOCH          = 2026-03-07T12:45:02.816640
MEAN_MOTION    = 12.98388298
ECCENTRICITY   = .00291302
INCLINATION    = 90.2480
RA_OF_ASC_NODE = 6.5273
ARG_OF_PERICENTER = 327.2014
MEAN_ANOMALY   = 32.7298

EPHEMERIS_TYPE = 0
CLASSIFICATION_TYPE = U
NORAD_CAT_ID   = 270268
ELEMENT_SET_NO = 999
REV_AT_EPOCH   = 28348
BSTAR          = .1301745E-2
MEAN_MOTION_DOT = .391E-5
MEAN_MOTION_DDOT = 0

CCSDS_OMM_VERS = 2.0
CREATION_DATE  = 
ORIGINATOR     = 

OBJECT_NAME    = UNKNOWN
OBJECT_ID      = 
CENTER_NAME    = EARTH
REF_FRAME      = TEME
TIME_SYSTEM    = UTC
MEAN_ELEMENT_THEORY = SGP/SGP4

EPOCH          = 2026-03-07T13:27:56.799648
MEAN_MOTION    = 13.30551844
ECCENTRICITY   = .00835606
INCLINATION    = 82.5877
RA_OF_ASC_NODE = 181.3862
ARG_OF_PERICENTER = 213.5056
MEAN_ANOMALY   = 146.0773

EPHEMERIS_TYPE = 0
CLASSIFICATION_TYPE = U
NORAD_CAT_ID   = 270269
ELEMENT_SET_NO = 999
REV_AT_EPOCH   = 29012
BSTAR          = .6657712E-3
MEAN_MOTION_DOT = .332E-5
MEAN_MOTION_DDOT = 0

CCSDS_OMM_VERS = 2.0
CREATION_DATE  = 
ORIGINATOR     = 

OBJECT_NAME    = UNKNOWN
OBJECT_ID      = 
CENTER_NAME    = EARTH
REF_FRAME      = TEME
TIME_SYSTEM    = UTC
MEAN_ELEMENT_THEORY = SGP/SGP4

EPOCH          = 2026-03-11T13:57:27.030240
MEAN_MOTION    = 12.98350977
ECCENTRICITY   = .00290555
INCLINATION    = 90.2539
RA_OF_ASC_NODE = 10.1431
ARG_OF_PERICENTER = 294.8569
MEAN_ANOMALY   = 64.9531

EPHEMERIS_TYPE = 0
CLASSIFICATION_TYPE = U
NORAD_CAT_ID   = 270274
ELEMENT_SET_NO = 999
REV_AT_EPOCH   = 28358
BSTAR          = .27336265E-2
MEAN_MOTION_DOT = .812E-5
MEAN_MOTION_DDOT = 0

CCSDS_OMM_VERS = 2.0
CREATION_DATE  = 
ORIGINATOR     = 

OBJECT_NAME    = UNKNOWN
OBJECT_ID      = 
CENTER_NAME    = EARTH
REF_FRAME      = TEME
TIME_SYSTEM    = UTC
MEAN_ELEMENT_THEORY = SGP/SGP4

EPOCH          = 2026-03-02T01:26:58.513344
MEAN_MOTION    = 13.92764203
ECCENTRICITY   = .0302382
INCLINATION    = 86.4340
RA_OF_ASC_NODE = 354.2351
ARG_OF_PERICENTER = 318.8972
MEAN_ANOMALY   = 38.9766

EPHEMERIS_TYPE = 0
CLASSIFICATION_TYPE = U
NORAD_CAT_ID   = 270275
ELEMENT_SET_NO = 999
REV_AT_EPOCH   = 2851
BSTAR          = .61816995E-2
MEAN_MOTION_DOT = .11669E-3
MEAN_MOTION_DDOT = 0

CCSDS_OMM_VERS = 2.0
CREATION_DATE  = 
ORIGINATOR     = 

OBJECT_NAME    = UNKNOWN
OBJECT_ID      = 
CENTER_NAME    = EARTH
REF_FRAME      = TEME
TIME_SYSTEM    = UTC
MEAN_ELEMENT_THEORY = SGP/SGP4

EPOCH          = 2026-03-12T12:46:01.100352
MEAN_MOTION    = 12.93770667
ECCENTRICITY   = .00309954
INCLINATION    = 90.2300
RA_OF_ASC_NODE = 1.8233
ARG_OF_PERICENTER = 59.6289
MEAN_ANOMALY   = 300.7888

EPHEMERIS_TYPE = 0
CLASSIFICATION_TYPE = U
NORAD_CAT_ID   = 270279
ELEMENT_SET_NO = 999
REV_AT_EPOCH   = 28135
BSTAR          = -.11501966E-3
MEAN_MOTION_DOT = -.24E-6
MEAN_MOTION_DDOT = 0

CCSDS_OMM_VERS = 2.0
CREATION_DATE  = 
ORIGINATOR     = 

OBJECT_NAME    = UNKNOWN
OBJECT_ID      = 
CENTER_NAME    = EARTH
REF_FRAME      = TEME
TIME_SYSTEM    = UTC
MEAN_ELEMENT_THEORY = SGP/SGP4

EPOCH          = 2026-03-06T13:27:50.338656
MEAN_MOTION    = 12.96969159
ECCENTRICITY   = .00270353
INCLINATION    = 90.2451
RA_OF_ASC_NODE = 4.9427
ARG_OF_PERICENTER = 282.2562
MEAN_ANOMALY   = 77.5532

EPHEMERIS_TYPE = 0
CLASSIFICATION_TYPE = U
NORAD_CAT_ID   = 270280
ELEMENT_SET_NO = 999
REV_AT_EPOCH   = 28141
BSTAR          = .68668204E-4
MEAN_MOTION_DOT = .27E-6
MEAN_MOTION_DDOT = 0

CCSDS_OMM_VERS = 2.0
CREATION_DATE  = 
ORIGINATOR     = 

OBJECT_NAME    = UNKNOWN
OBJECT_ID      = 
CENTER_NAME    = EARTH
REF_FRAME      = TEME
TIME_SYSTEM    = UTC
MEAN_ELEMENT_THEORY = SGP/SGP4

EPOCH          = 2026-03-08T09:57:13.280256
MEAN_MOTION    = 12.96028137
ECCENTRICITY   = .01867223
INCLINATION    = 82.6863
RA_OF_ASC_NODE = 323.2940
ARG_OF_PERICENTER = 41.5048
MEAN_ANOMALY   = 320.0070

EPHEMERIS_TYPE = 0
CLASSIFICATION_TYPE = U
NORAD_CAT_ID   = 270284
ELEMENT_SET_NO = 999
REV_AT_EPOCH   = 27836
BSTAR          = .14542864E-1
MEAN_MOTION_DOT = .4491E-4
MEAN_MOTION_DDOT = 0

CCSDS_OMM_VERS = 2.0
CREATION_DATE  = 
ORIGINATOR     = 

OBJECT_NAME    = UNKNOWN
OBJECT_ID      = 
CENTER_NAME    = EARTH
REF_FRAME      = TEME
TIME_SYSTEM    = UTC
MEAN_ELEMENT_THEORY = SGP/SGP4

EPOCH          = 2026-03-07T21:25:44.525280
MEAN_MOTION    = 12.50159641
ECCENTRICITY   = .00190323
INCLINATION    = 73.6019
RA_OF_ASC_NODE = 305.8142
ARG_OF_PERICENTER = 174.8275
MEAN_ANOMALY   = 185.2974

EPHEMERIS_TYPE = 0
CLASSIFICATION_TYPE = U
NORAD_CAT_ID   = 270292
ELEMENT_SET_NO = 999
REV_AT_EPOCH   = 28638
BSTAR          = .26959352E-2
MEAN_MOTION_DOT = .393E-5
MEAN_MOTION_DDOT = 0

CCSDS_OMM_VERS = 2.0
CREATION_DATE  = 
ORIGINATOR     = 

OBJECT_NAME    = UNKNOWN
OBJECT_ID      = 
CENTER_NAME    = EARTH
REF_FRAME      = TEME
TIME_SYSTEM    = UTC
MEAN_ELEMENT_THEORY = SGP/SGP4

EPOCH          = 2026-03-06T05:01:33.929472
MEAN_MOTION    = 14.55046629
ECCENTRICITY   = .00071488
INCLINATION    = 98.6796
RA_OF_ASC_NODE = 233.2624
ARG_OF_PERICENTER = 66.6013
MEAN_ANOMALY   = 293.5934

EPHEMERIS_TYPE = 0
CLASSIFICATION_TYPE = U
NORAD_CAT_ID   = 270293
ELEMENT_SET_NO = 999
REV_AT_EPOCH   = 33189
BSTAR          = .60760611E-3
MEAN_MOTION_DOT = .2571E-4
MEAN_MOTION_DDOT = 0

